{
    "links": {
        "self": "http://www.neowsapp.com/rest/v1/neo/3551525?api_key=iIulBulltgU6a56xZRHN4H3l9WmuAYTsLGpBGhQ2"
    },
    "id": "3551525",
    "neo_reference_id": "3551525",
    "name": "(2010 VA140)",
    "designation": "2010 VA140",
    "nasa_jpl_url": "http://ssd.jpl.nasa.gov/sbdb.cgi?sstr=3551525",
    "absolute_magnitude_h": 25.9,
    "estimated_diameter": {
        "kilometers": {
            "estimated_diameter_min": 0.0175612318,
            "estimated_diameter_max": 0.0392681082
        },
        "meters": {
            "estimated_diameter_min": 17.561231848,
            "estimated_diameter_max": 39.2681081809
        },
        "miles": {
            "estimated_diameter_min": 0.0109120402,
            "estimated_diameter_max": 0.0244000636
        },
        "feet": {
            "estimated_diameter_min": 57.6155918963,
            "estimated_diameter_max": 128.8323800441
        }
    },
    "is_potentially_hazardous_asteroid": false,
    "close_approach_data": [
        {
            "close_approach_date": "2010-10-28",
            "close_approach_date_full": "2010-Oct-28 22:31",
            "epoch_date_close_approach": 1288305060000,
            "relative_velocity": {
                "kilometers_per_second": "4.0722016151",
                "kilometers_per_hour": "14659.9258143718",
                "miles_per_hour": "9109.1077928245"
            },
            "miss_distance": {
                "astronomical": "0.0466767082",
                "lunar": "18.1572394898",
                "kilometers": "6982736.125331534",
                "miles": "4338871.0321578092"
            },
            "orbiting_body": "Earth"
        }
    ],
    "orbital_data": {
        "orbit_id": "9",
        "orbit_determination_date": "2019-07-16 06:14:07",
        "first_observation_date": "2010-11-15",
        "last_observation_date": "2010-11-16",
        "data_arc_in_days": 1,
        "observations_used": 17,
        "orbit_uncertainty": "8",
        "minimum_orbit_intersection": ".0406056",
        "jupiter_tisserand_invariant": "4.414",
        "epoch_osculation": "2455516.5",
        "eccentricity": ".3260807575552356",
        "semi_major_axis": "1.536129115069104",
        "inclination": "1.565742900724294",
        "ascending_node_longitude": "15.09577250931933",
        "orbital_period": "695.408520920935",
        "perihelion_distance": "1.035226969524717",
        "perihelion_argument": "16.40446288856793",
        "aphelion_distance": "2.037031260613491",
        "perihelion_time": "2455495.907484095799",
        "mean_anomaly": "10.66036078432698",
        "mean_motion": ".5176813184906753",
        "equinox": "J2000",
        "orbit_class": {
            "orbit_class_type": "AMO",
            "orbit_class_description": "Near-Earth asteroid orbits similar to that of 1221 Amor",
            "orbit_class_range": "1.017 AU < q (perihelion) < 1.3 AU"
        }
    },
    "is_sentry_object": false
}